OBJECT_NAME,OBJECT_ID,EPOCH,MEAN_MOTION,ECCENTRICITY,INCLINATION,RA_OF_ASC_NODE,ARG_OF_PERICENTER,MEAN_ANOMALY,EPHEMERIS_TYPE,CLASSIFICATION_TYPE,NORAD_CAT_ID,ELEMENT_SET_NO,REV_AT_EPOCH,BSTAR,MEAN_MOTION_DOT,MEAN_MOTION_DDOT
STARLINK-2283,2021-024AP,2024-10-18T23:47:48.752736,15.06383283,0.0001894,53.0529,21.4352,95.1059,265.0146,0,U,48014,999,19863,4.93E-04,7.07E-05,0
STARLINK-2284,2021-024AR,2024-10-18T21:37:18.555744,15.11800953,0.000113,53.0558,6.3249,46.1649,313.9435,0,U,48016,999,19883,4.49E-03,7.82E-04,0
STARLINK-2282,2021-024AT,2024-10-19T03:04:07.970592,15.11784698,0.0002407,53.0548,74.319,261.453,98.6188,0,U,48018,999,19791,3.73E-03,6.46E-04,0
STARLINK-2285,2021-024AU,2024-10-19T02:13:04.507392,15.06390988,0.000142,53.0539,65.8173,76.1145,284.0002,0,U,48019,999,19803,3.96E-04,5.62E-05,0
STARLINK-2294,2021-024AV,2024-10-19T11:12:32.995584,15.06404923,0.0001231,53.0544,19.5333,96.716,263.3969,0,U,48020,999,19870,1.31E-03,1.93E-04,0
STARLINK-2301,2021-024AW,2024-10-19T09:53:29.383296,15.06400299,0.0001677,53.0546,24.3737,103.1896,256.928,0,U,48021,999,19864,1.08E-03,1.58E-04,0
STARLINK-2298,2021-024AX,2024-10-18T20:14:49.187904,15.06409536,0.0001704,53.0574,87.2131,103.7951,256.3227,0,U,48022,999,19770,1.59E-04,2.09E-05,0
STARLINK-2292,2021-024AY,2024-10-18T18:23:19.170240,15.0640568,0.0001929,53.05,87.28,112.0038,248.1156,0,U,48023,999,19822,2.53E-04,3.49E-05,0
STARLINK-2278,2021-024BB,2024-10-19T14:00:01.000224,15.38425908,0.0001184,53.0552,86.5886,74.2508,114.3821,0,U,48026,999,19777,2.15E-02,8.99E-03,0
STARLINK-2264,2021-024BD,2024-10-19T10:03:33.401376,15.06402447,0.0002173,53.0545,19.7468,89.4547,270.6691,0,U,48028,999,19870,1.44E-04,1.86E-05,0
STARLINK-2299,2021-024BE,2024-10-19T03:24:42.272352,15.06404522,0.0002049,53.0529,85.5907,78.1575,281.9643,0,U,48029,999,19775,2.51E-04,3.46E-05,0
STARLINK-2268,2021-024BF,2024-10-18T10:32:57.366240,15.0639317,0.0001183,53.053,93.7488,90.3114,269.8011,0,U,48030,999,19757,8.40E-04,1.22E-04,0
STARLINK-2267,2021-024BG,2024-10-19T09:45:34.109856,15.06403969,0.0001855,53.0533,334.4073,91.982,268.1381,0,U,48031,999,19933,5.44E-04,7.83E-05,0
STARLINK-2286,2021-024BJ,2024-10-19T03:08:47.497056,15.06408593,0.0002172,53.0496,85.6462,79.0913,281.0321,0,U,48033,999,19775,2.29E-04,3.13E-05,0
STARLINK-2288,2021-024BK,2024-10-19T03:35:19.907808,15.06401341,0.0001829,53.0564,85.562,84.7563,275.3634,0,U,48034,999,19775,2.27E-04,3.10E-05,0
STARLINK-2295,2021-024BM,2024-10-19T06:00:00.999648,15.13626591,0.0001071,53.0538,84.7441,98.3338,235.9997,0,U,48036,999,19777,1.78E-02,3.40E-03,0
ONEWEB-0115,2021-025A,2024-10-19T02:33:20.177856,13.13469747,0.0001717,87.8875,80.798,96.6794,263.4531,0,U,48042,999,17404,6.06E-04,2.34E-06,0
ONEWEB-0152,2021-025B,2024-10-18T15:53:24.633888,13.13467864,0.0001743,87.8877,80.8892,95.7709,264.3618,0,U,48043,999,17393,-4.32E-04,-1.45E-06,0
ONEWEB-0153,2021-025C,2024-10-19T04:09:18.138240,13.134687,0.0001676,87.888,80.7783,92.6204,267.5117,0,U,48044,999,17400,6.66E-04,2.56E-06,0
ONEWEB-0154,2021-025D,2024-10-18T17:06:31.733856,13.13466008,0.0001724,87.8879,80.8778,92.6308,267.5019,0,U,48045,999,17389,9.48E-04,3.59E-06,0
ONEWEB-0116,2021-025E,2024-10-18T16:16:14.713248,13.13467548,0.0001742,87.8879,80.8574,98.7437,261.3889,0,U,48046,999,17403,-9.00E-04,-3.16E-06,0
ONEWEB-0150,2021-025F,2024-10-19T02:37:52.539168,13.13471035,0.0001472,87.8876,80.7827,93.2189,266.9109,0,U,48047,999,17398,3.50E-04,1.41E-06,0
ONEWEB-0107,2021-025G,2024-10-18T21:11:04.518816,13.13466495,0.0001536,87.8874,80.8261,78.5944,281.5358,0,U,48048,999,17393,4.12E-04,1.63E-06,0
ONEWEB-0101,2021-025H,2024-10-18T16:39:07.606656,13.13471854,0.0001679,87.8879,80.8875,91.0965,269.0356,0,U,48049,999,17388,-3.24E-05,1.00E-08,0
ONEWEB-0113,2021-025J,2024-10-19T03:05:18.196512,13.13467778,0.0001707,87.8877,80.7808,97.2629,262.8694,0,U,48050,999,17402,-7.24E-04,-2.52E-06,0
ONEWEB-0112,2021-025K,2024-10-18T15:48:50.951520,13.13468513,0.0001582,87.8874,80.8679,95.7258,264.4052,0,U,48051,999,17397,-1.90E-05,6.00E-08,0
ONEWEB-0156,2021-025L,2024-10-18T19:41:56.845248,13.13471093,0.0001632,87.8874,80.837,95.3572,264.7743,0,U,48052,999,17397,-7.94E-04,-2.77E-06,0
ONEWEB-0161,2021-025M,2024-10-19T04:11:35.712960,13.13465692,0.0001568,87.8885,80.7776,85.9685,274.1623,0,U,48053,999,17396,7.91E-04,3.02E-06,0
ONEWEB-0158,2021-025N,2024-10-19T03:16:43.428864,13.13469387,0.0001597,87.8877,80.7723,99.6482,260.4828,0,U,48054,999,17407,-8.31E-04,-2.91E-06,0
ONEWEB-0157,2021-025P,2024-10-19T03:51:00.366624,13.13472293,0.0001438,87.8876,80.7813,90.2849,269.8445,0,U,48055,999,17402,4.68E-04,1.84E-06,0
ONEWEB-0162,2021-025Q,2024-10-18T16:00:15.162624,13.13465749,0.0001572,87.8873,80.8735,95.587,264.5439,0,U,48056,999,17392,-7.17E-04,-2.49E-06,0
ONEWEB-0155,2021-025R,2024-10-19T03:28:09.005088,13.1347236,0.0001733,87.8877,80.7903,88.4037,271.7291,0,U,48057,999,17413,-5.86E-04,-2.01E-06,0
ONEWEB-0149,2021-025S,2024-10-19T03:57:50.768352,13.13469161,0.0001473,87.8874,80.7823,98.5545,261.5751,0,U,48058,999,17394,-7.46E-04,-2.60E-06,0
ONEWEB-0148,2021-025T,2024-10-19T03:07:34.938336,13.13467969,0.0000963,87.8879,80.8039,91.0818,269.0421,0,U,48059,999,17405,-7.15E-04,-2.48E-06,0
ONEWEB-0160,2021-025U,2024-10-18T20:11:40.191360,13.13469033,0.0002221,87.888,80.858,115.5642,244.5717,0,U,48060,999,17396,-3.67E-04,-1.21E-06,0
ONEWEB-0163,2021-025V,2024-10-18T16:11:42.579168,13.13469164,0.0001517,87.8881,80.8806,84.3407,275.7895,0,U,48061,999,17406,-9.12E-04,-3.20E-06,0
ONEWEB-0159,2021-025W,2024-10-18T15:55:41.201184,13.13472259,0.0001423,87.8874,80.864,90.117,270.0122,0,U,48062,999,17398,-3.07E-04,-9.90E-07,0
ONEWEB-0164,2021-025X,2024-10-19T04:18:26.128512,13.13466972,0.000181,87.8879,80.772,93.807,266.3266,0,U,48063,999,17404,4.47E-04,1.76E-06,0
ONEWEB-0167,2021-025Y,2024-10-18T16:12:50.161248,13.13467782,0.0001492,87.8879,80.8862,88.0796,272.0504,0,U,48064,999,17395,-9.00E-04,-3.16E-06,0
ONEWEB-0166,2021-025Z,2024-10-18T16:43:41.711520,13.13472348,0.0001403,87.8873,80.8606,95.3677,264.7612,0,U,48065,999,17403,6.00E-05,3.50E-07,0
ONEWEB-0151,2021-025AA,2024-10-19T03:44:07.891296,13.13471706,0.0001731,87.8877,80.7853,92.2535,267.8792,0,U,48066,999,17404,-8.27E-05,-1.70E-07,0
ONEWEB-0170,2021-025AB,2024-10-19T03:55:34.158720,13.13473177,0.0002226,87.8877,80.787,98.3366,261.8015,0,U,48067,999,17399,4.98E-04,1.95E-06,0
ONEWEB-0168,2021-025AC,2024-10-18T20:16:12.211392,13.1346955,0.0001617,87.8878,80.824,91.9723,268.1591,0,U,48068,999,17396,-1.26E-03,-4.46E-06,0
ONEWEB-0173,2021-025AD,2024-10-18T16:25:25.142592,13.13468563,0.0001777,87.888,80.8656,78.8729,281.2599,0,U,48069,999,17418,-7.74E-04,-2.70E-06,0
ONEWEB-0171,2021-025AE,2024-10-19T09:45:14.148000,13.1346843,0.0001739,87.8881,80.7577,91.544,268.5888,0,U,48070,999,17409,1.06E-03,4.01E-06,0
ONEWEB-0172,2021-025AF,2024-10-18T16:48:16.492896,13.13468941,0.0001735,87.888,80.8651,89.1385,270.9942,0,U,48071,999,17489,4.11E-04,1.63E-06,0
ONEWEB-0174,2021-025AG,2024-10-18T16:23:07.087488,13.134679,0.0001483,87.8879,80.8828,95.4017,264.7281,0,U,48072,999,17421,-7.75E-04,-2.70E-06,0
ONEWEB-0175,2021-025AH,2024-10-18T20:43:37.927488,13.13473689,0.0001968,87.8874,80.8278,92.6664,267.469,0,U,48073,999,17389,1.09E-03,4.11E-06,0
ONEWEB-0177,2021-025AJ,2024-10-19T04:20:43.044000,13.13467552,0.0001498,87.8874,80.7742,82.2665,277.8634,0,U,48074,999,17412,7.54E-04,2.88E-06,0
ONEWEB-0178,2021-025AK,2024-10-18T19:37:33.607776,13.13466831,0.0001584,87.8884,80.873,86.2382,273.8929,0,U,48075,999,17412,-4.35E-04,-1.46E-06,0
ONEWEB-0108,2021-025AL,2024-10-19T11:07:30.746784,13.13468652,0.0001564,87.8875,80.7144,102.1003,258.0302,0,U,48076,999,17414,2.01E-04,8.60E-07,0
ONEWEB-0169,2021-025AM,2024-10-18T19:25:56.297568,13.13473102,0.000147,87.8879,80.8582,101.1251,259.0044,0,U,48077,999,17270,8.15E-05,4.30E-07,0
GAOFEN-12 02,2021-026A,2024-10-19T10:36:01.780128,14.80690763,0.0004469,97.9608,284.1163,104.7588,255.4119,0,U,48079,999,19213,3.30E-04,2.49E-05,0
BEESAT-8,2021-022AP,2024-10-18T16:37:14.527200,15.4692621,0.0012752,97.4672,197.0066,56.8241,303.4229,0,U,48085,999,19686,2.26E-03,1.16E-03,0
STARLINK-2048,2021-027A,2024-10-19T03:53:18.817440,15.06379933,0.0001321,53.054,210.7882,94.9319,265.1821,0,U,48092,999,19671,3.13E-03,4.66E-04,0
STARLINK-2404,2021-027B,2024-10-19T04:35:05.336736,15.06409524,0.0002068,53.0542,275.5777,107.2088,252.9128,0,U,48093,999,19581,6.49E-04,9.40E-05,0
STARLINK-2412,2021-027C,2024-10-19T03:24:43.028352,15.06399344,0.0001709,53.0541,285.5894,93.1872,266.9312,0,U,48094,999,19567,2.28E-04,3.11E-05,0
STARLINK-2414,2021-027D,2024-10-19T03:35:20.173920,15.06398497,0.0001728,53.0543,285.5649,93.5331,266.5856,0,U,48095,999,19567,1.28E-04,1.62E-05,0
STARLINK-2417,2021-027E,2024-10-19T04:33:43.959168,15.06409109,0.0002035,53.056,285.3782,99.0636,261.0583,0,U,48096,999,19567,4.76E-04,6.82E-05,0
STARLINK-2418,2021-027F,2024-10-19T04:04:32.112768,15.06389265,0.000194,53.0549,265.4735,102.507,257.6136,0,U,48097,999,19595,3.18E-05,1.92E-06,0
STARLINK-2421,2021-027G,2024-10-19T08:17:58.360704,15.0640017,0.0001526,53.0536,274.6805,94.4571,265.6592,0,U,48098,999,19589,2.96E-03,4.40E-04,0
STARLINK-2428,2021-027H,2024-10-19T04:49:39.124128,15.06398874,0.0001675,53.0538,285.3234,91.8764,268.2417,0,U,48099,999,19567,2.93E-04,4.09E-05,0
STARLINK-2430,2021-027J,2024-10-19T03:53:55.160736,15.06388535,0.0002013,53.0552,265.5051,100.2019,259.9197,0,U,48100,999,19595,-7.54E-05,-1.41E-05,0
STARLINK-2436,2021-027K,2024-10-19T05:33:28.187136,15.06404249,0.0001923,53.0541,275.3988,99.0326,261.0881,0,U,48101,999,19582,3.54E-04,4.99E-05,0
STARLINK-2437,2021-027L,2024-10-19T04:31:04.507104,15.06399477,0.0001408,53.0541,265.3895,95.9745,264.1404,0,U,48102,999,19595,2.27E-04,3.10E-05,0
STARLINK-2439,2021-027N,2024-10-19T04:59:37.653216,15.06400148,0.0001718,53.0545,270.3009,75.9576,284.1604,0,U,48104,999,19589,4.33E-04,6.17E-05,0
STARLINK-2440,2021-027P,2024-10-19T04:21:47.631456,15.06412003,0.0001343,53.0535,215.422,98.7633,261.3508,0,U,48105,999,19665,3.79E-03,5.67E-04,0
